ParkName,ParkType,ParkServiceArea,PSAManager,email,Number,Zipcode,Acreage,SupDist,ParkID,address,city_state,lat_long,geometry,area,length,po_name,state,zip
10TH AVE/CLEMENT MINI PARK,Mini Park,PSA 1,"Elder, Steve",steven.elder@sfgov.org,(415) 601-6501,94118.0,0.66,1.0,156.0,351 9th Ave,"San Francisco, CA","(37.78184397, -122.46809908)",POINT (-122.46809908 37.78184397),46128646.0967,31063.6615541,SAN FRANCISCO,CA,94118
ANGELO J. ROSSI PLAYGROUND,Neighborhood Park or Playground,PSA 1,"Elder, Steve",steven.elder@sfgov.org,(415) 601-6501,94118.0,6.47,1.0,105.0,2 Willard North St,"San Francisco, CA","(37.77874186, -122.45745402)",POINT (-122.45745402 37.77874186),46128646.0967,31063.6615541,SAN FRANCISCO,CA,94118
LAUREL HILL PLAYGROUND,Neighborhood Park or Playground,PSA 1,"Figone, Joe",joseph.figone@sfgov.org,(415) 713-4997,94118.0,1.47,2.0,107.0,251 Euclid Ave,"San Francisco, CA","(37.78393678, -122.45093931)",POINT (-122.45093931 37.78393678),46128646.0967,31063.6615541,SAN FRANCISCO,CA,94118
MOUNTAIN LAKE PARK,Neighborhood Park or Playground,PSA 1,"Elder, Steve",steven.elder@sfgov.org,(415) 601-6501,94118.0,12.79,2.0,102.0,1 11th Ave,"San Francisco, CA","(37.78724257, -122.4690454)",POINT (-122.4690454 37.78724257),46128646.0967,31063.6615541,SAN FRANCISCO,CA,94118
MURIEL LEFF MINI PARK,Mini Park,PSA 1,"Elder, Steve",steven.elder@sfgov.org,(415) 601-6501,94118.0,0.21,1.0,155.0,7th Ave between Geary,"San Francisco, CA","(37.78006464, -122.46500795)",POINT (-122.46500795 37.78006464),46128646.0967,31063.6615541,SAN FRANCISCO,CA,94118
PRESIDIO HEIGHTS PLAYGROUND,Neighborhood Park or Playground,PSA 1,"Figone, Joe",joseph.figone@sfgov.org,(415) 713-4997,94118.0,0.44,2.0,109.0,Clay,"San Francisco, CA","(37.78847078, -122.4495972)",POINT (-122.4495972 37.78847078),46128646.0967,31063.6615541,SAN FRANCISCO,CA,94118
15TH AVENUE STEPS,Mini Park,PSA 4,"Sheehy, Chuck",charles.sheehy@sfgov.org,(415) 218-2226,94122.0,0.26,7.0,185.0,15th Ave b w Kirkham,"San Francisco, CA","(37.75956493, -122.47226783)",POINT (-122.47226783 37.75956493),115396029.783,52028.9664001,SAN FRANCISCO,CA,94122
GOLDEN GATE PARK,Regional Park,Golden Gate Park,"Koch-Gonzalez, Gloria",gloria.koch-gonzalez@sfgov.org,(415) 831-6307,94117.0,1031.98,1.0,94.0,Stanyan,"San Francisco, CA","(37.76905891, -122.48094821)",POINT (-122.48094821 37.76905891),115396029.783,52028.9664001,SAN FRANCISCO,CA,94122
GRAND VIEW OPEN SPACE,Neighborhood Park or Playground,PSA 4,"Sheehy, Chuck",charles.sheehy@sfgov.org,(415) 218-2226,94122.0,0.65,7.0,12910.0,15th Ave,"San Francisco, CA","(37.75507227, -122.47235155)",POINT (-122.47235155 37.75507227),115396029.783,52028.9664001,SAN FRANCISCO,CA,94122
GRAND VIEW PARK,Neighborhood Park or Playground,PSA 4,"Sheehy, Chuck",charles.sheehy@sfgov.org,(415) 218-2226,94122.0,3.98,7.0,92.0,Moraga,"San Francisco, CA","(37.75646571, -122.47180128)",POINT (-122.47180128 37.75646571),115396029.783,52028.9664001,SAN FRANCISCO,CA,94122
LOWER GREAT HIGHWAY,Parkway,Golden Gate Park,"Deasy, Jon",jon.deasy@sfgov.org,(415) 831-6307,94122.0,21.1,4.0,163.0,Great Highway,"San Francisco, CA","(37.74928062, -122.50817528)",POINT (-122.50817528 37.74928062),115396029.783,52028.9664001,SAN FRANCISCO,CA,94122
SUNSET PLAYGROUND,Neighborhood Park or Playground,PSA 4,"Sheets, Robert",robert.sheets@sfgov.org,(415) 235-4576,94122.0,3.29,4.0,93.0,2201 Lawton St,"San Francisco, CA","(37.75658875, -122.48684698)",POINT (-122.48684698 37.75658875),115396029.783,52028.9664001,SAN FRANCISCO,CA,94122
24TH/YORK MINI PARK,Mini Park,PSA 6,"Field, Adrian",adrian.field@sfgov.org,(415) 717-2872,94110.0,0.12,9.0,51.0,24th,"San Francisco, CA","(37.75306042, -122.40857543)",POINT (-122.40857543 37.75306042),66887406.7173,41644.5510172,SAN FRANCISCO,CA,94110
ALIOTO MINI PARK,Mini Park,PSA 6,"Field, Adrian",adrian.field@sfgov.org,(415) 717-2872,94110.0,0.16,9.0,62.0,20th,"San Francisco, CA","(37.75890196, -122.41821702)",POINT (-122.41821702 37.75890196),66887406.7173,41644.5510172,SAN FRANCISCO,CA,94110
BERNAL HEIGHTS RECREATION CENTER,Neighborhood Park or Playground,PSA 6,"Miller, John",john.miller@sfgov.org,(415) 513-2577,94110.0,0.74,9.0,33.0,500 Moultrie,"San Francisco, CA","(37.73844636, -122.41615685)",POINT (-122.41615685 37.73844636),66887406.7173,41644.5510172,SAN FRANCISCO,CA,94110
COLERIDGE MINI PARK,Mini Park,PSA 6,"Miller, John",john.miller@sfgov.org,(415) 513-2577,94110.0,0.21,9.0,34.0,Coleridge,"San Francisco, CA","(37.74442266, -122.41966647)",POINT (-122.41966647 37.74442266),66887406.7173,41644.5510172,SAN FRANCISCO,CA,94110
COSO/PRECITA MINI PARK,Mini Park,PSA 6,"Miller, John",john.miller@sfgov.org,(415) 513-2577,94110.0,0.15,9.0,199.0,Coso,"San Francisco, CA","(37.74624354, -122.41812033)",POINT (-122.41812033 37.74624354),66887406.7173,41644.5510172,SAN FRANCISCO,CA,94110
Dearborn Community Garden,Community Garden,PSA 6,"Field, Adrian",adrian.field@sfgov.org,(415) 717-2872,94110.0,0.15,8.0,137654.0,59 Dearborn St,"San Francisco, CA","(37.76237833, -122.42274353)",POINT (-122.42274353 37.76237833),66887406.7173,41644.5510172,SAN FRANCISCO,CA,94110
FRANKLIN SQUARE,Neighborhood Park or Playground,PSA 2,"Hill, Eric",eric.hill@sfgov.org,(415) 254-8030,94110.0,5.18,6.0,55.0,16th,"San Francisco, CA","(37.76501506, -122.4093148)",POINT (-122.4093148 37.76501506),66887406.7173,41644.5510172,SAN FRANCISCO,CA,94110
GARFIELD SQUARE,Neighborhood Park or Playground,PSA 6,"Field, Adrian",adrian.field@sfgov.org,(415) 717-2872,94110.0,2.93,9.0,24.0,26th,"San Francisco, CA","(37.75020058, -122.4122356)",POINT (-122.4122356 37.75020058),66887406.7173,41644.5510172,SAN FRANCISCO,CA,94110
Good Prospect Community Garden,Community Garden,PSA 6,"Miller, John",john.miller@sfgov.org,(415) 513-2577,94110.0,0.11,9.0,21141.0,100 Cortland Ave,"San Francisco, CA","(37.74002499, -122.42097734)",POINT (-122.42097734 37.74002499),66887406.7173,41644.5510172,SAN FRANCISCO,CA,94110
JAMES ROLPH JR PLAYGROUND,Neighborhood Park or Playground,PSA 6,"Field, Adrian",adrian.field@sfgov.org,(415) 717-2872,94110.0,2.93,9.0,50.0,Potrero,"San Francisco, CA","(37.7497274, -122.40623124)",POINT (-122.40623124 37.7497274),66887406.7173,41644.5510172,SAN FRANCISCO,CA,94110
JOSE CORONADO PLAYGROUND,Neighborhood Park or Playground,PSA 6,"Field, Adrian",adrian.field@sfgov.org,(415) 717-2872,94110.0,0.78,9.0,60.0,21st,"San Francisco, CA","(37.75754628, -122.41510589)",POINT (-122.41510589 37.75754628),66887406.7173,41644.5510172,SAN FRANCISCO,CA,94110
JURI COMMONS,Mini Park,PSA 6,"Field, Adrian",adrian.field@sfgov.org,(415) 717-2872,94110.0,0.32,9.0,23.0,Guerrero,"San Francisco, CA","(37.74950391, -122.42199245)",POINT (-122.42199245 37.74950391),66887406.7173,41644.5510172,SAN FRANCISCO,CA,94110
KID POWER PARK,Neighborhood Park or Playground,PSA 6,"Field, Adrian",adrian.field@sfgov.org,(415) 717-2872,94110.0,0.23,6.0,191.0,45 Hoff St,"San Francisco, CA","(37.76415431, -122.42027989)",POINT (-122.42027989 37.76415431),66887406.7173,41644.5510172,SAN FRANCISCO,CA,94110
MISSION PLAYGROUND,Neighborhood Park or Playground,PSA 6,"Field, Adrian",adrian.field@sfgov.org,(415) 717-2872,94110.0,2.03,8.0,61.0,19th,"San Francisco, CA","(37.7592917, -122.42230064)",POINT (-122.42230064 37.7592917),66887406.7173,41644.5510172,SAN FRANCISCO,CA,94110
MISSION REC CENTER,Neighborhood Park or Playground,PSA 6,"Field, Adrian",adrian.field@sfgov.org,(415) 717-2872,94110.0,0.63,9.0,59.0,2450 Harrison St,"San Francisco, CA","(37.75813659, -122.41292225)",POINT (-122.41292225 37.75813659),66887406.7173,41644.5510172,SAN FRANCISCO,CA,94110
MULLEN/PERALTA MINI PARK,Mini Park,PSA 6,"Miller, John",john.miller@sfgov.org,(415) 513-2577,94110.0,0.45,9.0,176.0,Mullen,"San Francisco, CA","(37.74607638, -122.40880708)",POINT (-122.40880708 37.74607638),66887406.7173,41644.5510172,SAN FRANCISCO,CA,94110
Ogden Terrace Community Garden,Community Garden,PSA 6,"Miller, John",john.miller@sfgov.org,(415) 513-2577,94110.0,0.15,9.0,171609.0,700 Ogden Ave,"San Francisco, CA","(37.73580357, -122.41203411)",POINT (-122.41203411 37.73580357),66887406.7173,41644.5510172,SAN FRANCISCO,CA,94110
Park St Community Garden,Community Garden,PSA 6,"Miller, John",john.miller@sfgov.org,(415) 513-2577,94110.0,0.05,9.0,171731.0,Park,"San Francisco, CA","(37.73647064, -122.42577666)",POINT (-122.42577666 37.73647064),66887406.7173,41644.5510172,SAN FRANCISCO,CA,94110
PARQUE NINOS UNIDOS,Neighborhood Park or Playground,PSA 6,"Field, Adrian",adrian.field@sfgov.org,(415) 717-2872,94110.0,0.53,9.0,187.0,23rd,"San Francisco, CA","(37.75439053, -122.41356906)",POINT (-122.41356906 37.75439053),66887406.7173,41644.5510172,SAN FRANCISCO,CA,94110
POTRERO DEL SOL PARK,Neighborhood Park or Playground,PSA 6,"Field, Adrian",adrian.field@sfgov.org,(415) 717-2872,94110.0,4.36,10.0,49.0,Potrero,"San Francisco, CA","(37.75060695, -122.40507971)",POINT (-122.40507971 37.75060695),66887406.7173,41644.5510172,SAN FRANCISCO,CA,94110
PRECITA PARK,Neighborhood Park or Playground,PSA 6,"Miller, John",john.miller@sfgov.org,(415) 513-2577,94110.0,2.21,9.0,37.0,3200 Folsom St,"San Francisco, CA","(37.74706232, -122.41202466)",POINT (-122.41202466 37.74706232),66887406.7173,41644.5510172,SAN FRANCISCO,CA,94110
PRENTISS MINI PARK,Mini Park,PSA 6,"Miller, John",john.miller@sfgov.org,(415) 513-2577,94110.0,0.06,9.0,201.0,Prentiss,"San Francisco, CA","(37.74021712, -122.41187368)",POINT (-122.41187368 37.74021712),66887406.7173,41644.5510172,SAN FRANCISCO,CA,94110
ST MARY'S REC CENTER,Neighborhood Park or Playground,PSA 6,"Miller, John",john.miller@sfgov.org,(415) 513-2577,94110.0,13.6,9.0,31.0,Murray,"San Francisco, CA","(37.73365828, -122.42064294)",POINT (-122.42064294 37.73365828),66887406.7173,41644.5510172,SAN FRANCISCO,CA,94110
UTAH/18TH MINI PARK,Mini Park,PSA 2,"Hill, Eric",eric.hill@sfgov.org,(415) 254-8030,94110.0,0.1,10.0,202.0,18th,"San Francisco, CA","(37.76251745, -122.40599759)",POINT (-122.40599759 37.76251745),66887406.7173,41644.5510172,SAN FRANCISCO,CA,94110
Wolfe Lane Community Garden,Community Garden,PSA 6,"Miller, John",john.miller@sfgov.org,(415) 513-2577,94110.0,0.05,9.0,171608.0,90 Rutledge St,"San Francisco, CA","(37.74528401, -122.4066037)",POINT (-122.4066037 37.74528401),66887406.7173,41644.5510172,SAN FRANCISCO,CA,94110
29TH/DIAMOND OPEN SPACE,Neighborhood Park or Playground,PSA 5,"O'Brien, Teresa",teresa.o'brien@sfgov.org,(415) 819-2699,94131.0,0.82,8.0,194.0,Diamond,"San Francisco, CA","(37.74360211, -122.43523589)",POINT (-122.43523589 37.74360211),62041183.5838,57011.7832824,SAN FRANCISCO,CA,94131
Arlington Community Garden,Community Garden,PSA 5,"Lockwood, Darlene",darlene.lockwood@sfgov.org,(415) 717-2872,94131.0,0.13,8.0,171736.0,Arlington,"San Francisco, CA","(37.73704325, -122.42637624)",POINT (-122.42637624 37.73704325),62041183.5838,57011.7832824,SAN FRANCISCO,CA,94131
BERKELEY WAY OPEN SPACE,Neighborhood Park or Playground,PSA 5,"Lockwood, Darlene",darlene.lockwood@sfgov.org,(415) 717-2872,94131.0,0.83,8.0,2.0,298 Berkeley Wy,"San Francisco, CA","(37.73956697, -122.43995903)",POINT (-122.43995903 37.73956697),62041183.5838,57011.7832824,SAN FRANCISCO,CA,94131
BILLY GOAT HILL,Neighborhood Park or Playground,PSA 5,"O'Brien, Teresa",teresa.o'brien@sfgov.org,(415) 819-2699,94131.0,3.67,8.0,5.0,30th,"San Francisco, CA","(37.74140787, -122.43319872)",POINT (-122.43319872 37.74140787),62041183.5838,57011.7832824,SAN FRANCISCO,CA,94131
Clipper Terrace Community Garden,Community Garden,PSA 5,"Lockwood, Darlene",darlene.lockwood@sfgov.org,(415) 717-2872,94114.0,0.35,8.0,135193.0,855 Clipper Terrace,"San Francisco, CA","(37.74785021, -122.44317435)",POINT (-122.44317435 37.74785021),62041183.5838,57011.7832824,SAN FRANCISCO,CA,94131
DIAMOND/FARNUM OPEN SPACE,Neighborhood Park or Playground,PSA 5,"Lockwood, Darlene",darlene.lockwood@sfgov.org,(415) 717-2872,94131.0,0.07,8.0,181.0,Diamond,"San Francisco, CA","(37.73880241, -122.43431084)",POINT (-122.43431084 37.73880241),62041183.5838,57011.7832824,SAN FRANCISCO,CA,94131
DOROTHY ERSKINE PARK,Neighborhood Park or Playground,PSA 5,"Lockwood, Darlene",darlene.lockwood@sfgov.org,(415) 717-2872,94131.0,1.5,8.0,179.0,Martha,"San Francisco, CA","(37.73391249, -122.43944536)",POINT (-122.43944536 37.73391249),62041183.5838,57011.7832824,SAN FRANCISCO,CA,94131
DOUGLASS PLAYGROUND,Neighborhood Park or Playground,PSA 5,"Lockwood, Darlene",darlene.lockwood@sfgov.org,(415) 717-2872,94131.0,7.45,8.0,8.0,26th,"San Francisco, CA","(37.74727823, -122.43893283)",POINT (-122.43893283 37.74727823),62041183.5838,57011.7832824,SAN FRANCISCO,CA,94131
DUNCAN/CASTRO OPEN SPACE,Neighborhood Park or Playground,PSA 5,"O'Brien, Teresa",teresa.o'brien@sfgov.org,(415) 819-2699,94131.0,0.55,8.0,178.0,Duncan,"San Francisco, CA","(37.74594931, -122.43339409)",POINT (-122.43339409 37.74594931),62041183.5838,57011.7832824,SAN FRANCISCO,CA,94131
EVERSON/DIGBY LOTS,Neighborhood Park or Playground,PSA 5,"Lockwood, Darlene",darlene.lockwood@sfgov.org,(415) 717-2872,94131.0,1.2,8.0,6.0,61 Everson St,"San Francisco, CA","(37.73807643, -122.43177574)",POINT (-122.43177574 37.73807643),62041183.5838,57011.7832824,SAN FRANCISCO,CA,94131
FAIRMOUNT PLAZA,Neighborhood Park or Playground,PSA 6,"Miller, John",john.miller@sfgov.org,(415) 513-2577,94131.0,0.74,8.0,3.0,Miquel,"San Francisco, CA","(37.73849226, -122.42913147)",POINT (-122.42913147 37.73849226),62041183.5838,57011.7832824,SAN FRANCISCO,CA,94131
GEORGE CHRISTOPHER PLAYGROUND,Neighborhood Park or Playground,PSA 5,"Lockwood, Darlene",darlene.lockwood@sfgov.org,(415) 717-2872,94131.0,6.8,8.0,7.0,5210 Diamond Heights Blvd,"San Francisco, CA","(37.74347014, -122.44055037)",POINT (-122.44055037 37.74347014),62041183.5838,57011.7832824,SAN FRANCISCO,CA,94131
GLEN PARK,Regional Park,PSA 5,"Lockwood, Darlene",darlene.lockwood@sfgov.org,(415) 717-2872,94127.0,77.94,8.0,1.0,Elk St,"San Francisco, CA","(37.7400257, -122.44273225)",POINT (-122.44273225 37.7400257),62041183.5838,57011.7832824,SAN FRANCISCO,CA,94131
INTERIOR GREEN BELT,Neighborhood Park or Playground,PSA 4,"Sheehy, Chuck",charles.sheehy@sfgov.org,(415) 218-2226,94131.0,21.35,7.0,87.0,Belmont,"San Francisco, CA","(37.7585442, -122.45319935)",POINT (-122.45319935 37.7585442),62041183.5838,57011.7832824,SAN FRANCISCO,CA,94131
JOOST/BADEN MINI PARK,Mini Park,PSA 5,"Lockwood, Darlene",darlene.lockwood@sfgov.org,(415) 717-2872,94131.0,0.14,8.0,158.0,Joost,"San Francisco, CA","(37.73273279, -122.4408417)",POINT (-122.4408417 37.73273279),62041183.5838,57011.7832824,SAN FRANCISCO,CA,94131
MIDTOWN TERRACE PLAYGROUND,Neighborhood Park or Playground,PSA 4,"Sheehy, Chuck",charles.sheehy@sfgov.org,(415) 218-2226,94131.0,1.57,7.0,167.0,Clarendon,"San Francisco, CA","(37.75223367, -122.45453246)",POINT (-122.45453246 37.75223367),62041183.5838,57011.7832824,SAN FRANCISCO,CA,94131
SUNNYSIDE CONSERVATORY,Mini Park,PSA 5,"Lockwood, Darlene",darlene.lockwood@sfgov.org,(415) 717-2872,94131.0,0.26,8.0,180.0,Monterey,"San Francisco, CA","(37.73193576, -122.44076127)",POINT (-122.44076127 37.73193576),62041183.5838,57011.7832824,SAN FRANCISCO,CA,94131
UPPER NOE RECREATION CENTER,Neighborhood Park or Playground,PSA 5,"O'Brien, Teresa",teresa.o'brien@sfgov.org,(415) 819-2699,94131.0,2.51,8.0,22.0,Day,"San Francisco, CA","(37.74243091, -122.42779751)",POINT (-122.42779751 37.74243091),62041183.5838,57011.7832824,SAN FRANCISCO,CA,94131
WALTER HAAS PLAYGROUND,Neighborhood Park or Playground,PSA 5,"Lockwood, Darlene",darlene.lockwood@sfgov.org,(415) 717-2872,94131.0,4.4,8.0,4.0,Addison,"San Francisco, CA","(37.74058384, -122.43436978)",POINT (-122.43436978 37.74058384),62041183.5838,57011.7832824,SAN FRANCISCO,CA,94131
White Crane Springs Community Garden,Community Garden,PSA 4,"Sheets, Robert",robert.sheets@sfgov.org,(415) 235-4576,94131.0,2.68,7.0,123631.0,of 7th,"San Francisco, CA","(37.75758279, -122.4633024)",POINT (-122.4633024 37.75758279),62041183.5838,57011.7832824,SAN FRANCISCO,CA,94131
ADAM ROGERS PARK,Neighborhood Park or Playground,PSA 3,"Watkins, Robert",robert.watkins@sfgov.org,(415) 819-6138,94124.0,2.74,10.0,46.0,Ingalls,"San Francisco, CA","(37.73101645, -122.38385466)",POINT (-122.38385466 37.73101645),136997620.418,114072.475164,SAN FRANCISCO,CA,94124
BAY VIEW PLAYGROUND,Neighborhood Park or Playground,PSA 3,"Watkins, Robert",robert.watkins@sfgov.org,(415) 819-6138,94124.0,3.4,10.0,38.0,3rd,"San Francisco, CA","(37.72593906, -122.39329436)",POINT (-122.39329436 37.72593906),136997620.418,114072.475164,SAN FRANCISCO,CA,94124
CANDLESTICK PARK,Concession,Candlestick Park Stadium,"Gay, Mike",michael.gay@sfgov.org,(415) 218-4786,94124.0,86.13,10.0,41.0,Jamestown Ave,"San Francisco, CA","(37.71327692, -122.38483572)",POINT (-122.38483572 37.71327692),136997620.418,114072.475164,SAN FRANCISCO,CA,94124
GILMAN PLAYGROUND,Neighborhood Park or Playground,PSA 3,"Watkins, Robert",robert.watkins@sfgov.org,(415) 819-6138,94124.0,4.4,10.0,44.0,Gilman Ave,"San Francisco, CA","(37.71698202, -122.38809021)",POINT (-122.38809021 37.71698202),136997620.418,114072.475164,SAN FRANCISCO,CA,94124
HILLTOP PARK,Neighborhood Park or Playground,PSA 3,"Watkins, Robert",robert.watkins@sfgov.org,(415) 819-6138,94124.0,3.46,10.0,47.0,La Salle,"San Francisco, CA","(37.73291728, -122.38347479)",POINT (-122.38347479 37.73291728),136997620.418,114072.475164,SAN FRANCISCO,CA,94124
Hunter's Point Recreation Center,Neighborhood Park or Playground,PSA 3,"Watkins, Robert",robert.watkins@sfgov.org,(415) 695-5004,94124.0,0.3,10.0,165.0,200 Middle Point Rd,"San Francisco, CA","(37.73735, -122.37834)",POINT (-122.37834 37.73735),136997620.418,114072.475164,SAN FRANCISCO,CA,94124
JOSEPH LEE RECREATION CENTER,Neighborhood Park or Playground,PSA 3,"Watkins, Robert",robert.watkins@sfgov.org,(415) 819-6138,94124.0,0.78,10.0,40.0,1395 Mendell St,"San Francisco, CA","(37.73453491, -122.389412)",POINT (-122.389412 37.73453491),136997620.418,114072.475164,SAN FRANCISCO,CA,94124
LECONTE MINI PARK,Mini Park,PSA 3,"Watkins, Robert",robert.watkins@sfgov.org,(415) 819-6138,94124.0,0.16,10.0,137649.0,845 Meade St,"San Francisco, CA","(37.71765613, -122.3958507)",POINT (-122.3958507 37.71765613),136997620.418,114072.475164,SAN FRANCISCO,CA,94124
PALOU/PHELPS PARK,Neighborhood Park or Playground,PSA 3,"Watkins, Robert",robert.watkins@sfgov.org,(415) 819-6138,94124.0,2.63,10.0,188.0,Palou,"San Francisco, CA","(37.73551382, -122.39472336)",POINT (-122.39472336 37.73551382),136997620.418,114072.475164,SAN FRANCISCO,CA,94124
SELBY/PALOU MINI PARK,Mini Park,PSA 3,"Watkins, Robert",robert.watkins@sfgov.org,(415) 819-6138,94124.0,0.29,10.0,157.0,Palou,"San Francisco, CA","(37.73886468, -122.40035293)",POINT (-122.40035293 37.73886468),136997620.418,114072.475164,SAN FRANCISCO,CA,94124
SILVER TERRACE PLAYGROUND,Neighborhood Park or Playground,PSA 3,"Watkins, Robert",robert.watkins@sfgov.org,(415) 819-6138,94124.0,5.47,10.0,39.0,Thornton,"San Francisco, CA","(37.73285911, -122.40314958)",POINT (-122.40314958 37.73285911),136997620.418,114072.475164,SAN FRANCISCO,CA,94124
YOUNGBLOOD COLEMAN PLAYGROUND,Neighborhood Park or Playground,PSA 3,"Watkins, Robert",robert.watkins@sfgov.org,(415) 819-6138,94124.0,6.13,10.0,45.0,1398 Hudson St,"San Francisco, CA","(37.73876792, -122.38450221)",POINT (-122.38450221 37.73876792),136997620.418,114072.475164,SAN FRANCISCO,CA,94124
ALAMO SQUARE,Neighborhood Park or Playground,PSA 2,"O'Connor, Tom",tom.o'connor@sfgov.org,(415) 218-0259,94117.0,12.7,5.0,117.0,Hayes,"San Francisco, CA","(37.77634875, -122.43467396)",POINT (-122.43467396 37.77634875),33954482.7702,33260.7442902,SAN FRANCISCO,CA,94117
BUENA VISTA PARK,Regional Park,PSA 5,"O'Brien, Teresa",teresa.o'brien@sfgov.org,(415) 819-2699,94117.0,36.08,8.0,81.0,Buena Vista,"San Francisco, CA","(37.7685639, -122.44137945)",POINT (-122.44137945 37.7685639),33954482.7702,33260.7442902,SAN FRANCISCO,CA,94117
DUBOCE PARK,Neighborhood Park or Playground,PSA 6,"Field, Adrian",adrian.field@sfgov.org,(415) 717-2872,94117.0,4.31,8.0,113.0,Duboce,"San Francisco, CA","(37.769615, -122.43342784)",POINT (-122.43342784 37.769615),33954482.7702,33260.7442902,SAN FRANCISCO,CA,94117
GRATTAN PLAYGROUND,Neighborhood Park or Playground,PSA 2,"O'Connor, Tom",tom.o'connor@sfgov.org,(415) 218-0259,94117.0,1.52,5.0,104.0,1180 Stanyan St,"San Francisco, CA","(37.76259314, -122.45147654)",POINT (-122.45147654 37.76259314),33954482.7702,33260.7442902,SAN FRANCISCO,CA,94117
TANK HILL,Neighborhood Park or Playground,PSA 5,"O'Brien, Teresa",teresa.o'brien@sfgov.org,(415) 819-2699,94117.0,2.87,5.0,76.0,Clarendon,"San Francisco, CA","(37.75994801, -122.44768643)",POINT (-122.44768643 37.75994801),33954482.7702,33260.7442902,SAN FRANCISCO,CA,94117
ALICE CHALMERS PLAYGROUND,Neighborhood Park or Playground,PSA 3,"Taylor, Zack",zack.taylor@sfgov.org,(415) 601-7277,94112.0,1.68,11.0,25.0,670 Brunswick,"San Francisco, CA","(37.7098271, -122.44665065)",POINT (-122.44665065 37.7098271),92226023.9877,57996.3187634,SAN FRANCISCO,CA,94112
BALBOA PARK,Neighborhood Park or Playground,PSA 5,"Lockwood, Darlene",darlene.lockwood@sfgov.org,(415) 717-2872,94112.0,24.02,11.0,66.0,Ocean,"San Francisco, CA","(37.72494861, -122.44462659)",POINT (-122.44462659 37.72494861),92226023.9877,57996.3187634,SAN FRANCISCO,CA,94112
CAYUGA PLAYGROUND,Neighborhood Park or Playground,PSA 3,"Taylor, Zack",zack.taylor@sfgov.org,(415) 601-7277,94112.0,2.69,11.0,15.0,301 Naglee Ave,"San Francisco, CA","(37.71388814, -122.45029719)",POINT (-122.45029719 37.71388814),92226023.9877,57996.3187634,SAN FRANCISCO,CA,94112
CAYUGA/LAMARTINE MINI PARK,Mini Park,PSA 5,"Lockwood, Darlene",darlene.lockwood@sfgov.org,(415) 717-2872,94112.0,0.12,11.0,159.0,Cayuga,"San Francisco, CA","(37.73033758, -122.43294264)",POINT (-122.43294264 37.73033758),92226023.9877,57996.3187634,SAN FRANCISCO,CA,94112
EXCELSIOR PLAYGROUND,Neighborhood Park or Playground,PSA 3,"Taylor, Zack",zack.taylor@sfgov.org,(415) 601-7277,94112.0,1.61,11.0,29.0,Russia Ave,"San Francisco, CA","(37.7203554, -122.43321862)",POINT (-122.43321862 37.7203554),92226023.9877,57996.3187634,SAN FRANCISCO,CA,94112
GENEVA AVENUE STRIP,Mini Park,PSA 5,"Lockwood, Darlene",darlene.lockwood@sfgov.org,(415) 717-2872,94112.0,0.23,11.0,21.0,600 Geneva,"San Francisco, CA","(37.72046082, -122.44546412)",POINT (-122.44546412 37.72046082),92226023.9877,57996.3187634,SAN FRANCISCO,CA,94112
LAKEVIEW/ASHTON MINI PARK,Mini Park,PSA 4,"Sheehy, Chuck",charles.sheehy@sfgov.org,(415) 218-2226,94132.0,0.51,11.0,20.0,Ashton,"San Francisco, CA","(37.71809145, -122.4625727)",POINT (-122.4625727 37.71809145),92226023.9877,57996.3187634,SAN FRANCISCO,CA,94112
LESSING/SEARS MINI PARK,Mini Park,PSA 3,"Watkins, Robert",robert.watkins@sfgov.org,(415) 819-6138,94112.0,0.15,11.0,14.0,Sickles,"San Francisco, CA","(37.70860406, -122.4553029)",POINT (-122.4553029 37.70860406),92226023.9877,57996.3187634,SAN FRANCISCO,CA,94112
MINNIE & LOVIE WARD REC CENTER,Neighborhood Park or Playground,PSA 4,"Sheehy, Chuck",charles.sheehy@sfgov.org,(415) 218-2226,94112.0,10.3,11.0,19.0,650 Capitol,"San Francisco, CA","(37.71577016, -122.45757024)",POINT (-122.45757024 37.71577016),92226023.9877,57996.3187634,SAN FRANCISCO,CA,94112
ALICE MARBLE TENNIS COURTS,Neighborhood Park or Playground,PSA 1,"Figone, Joe",joseph.figone@sfgov.org,(415) 713-4997,94109.0,0.84,2.0,151.0,Greenwich,"San Francisco, CA","(37.80142776, -122.42034327)",POINT (-122.42034327 37.80142776),29239810.9534,30323.9485551,SAN FRANCISCO,CA,94109
BROADWAY TUNNEL WEST MINI PARK,Mini Park,PSA 1,"Figone, Joe",joseph.figone@sfgov.org,(415) 713-4997,94109.0,0.12,3.0,203.0,1201 Broadway,"San Francisco, CA","(37.79643576, -122.41742319)",POINT (-122.41742319 37.79643576),29239810.9534,30323.9485551,SAN FRANCISCO,CA,94109
HELEN WILLS PLAYGROUND,Neighborhood Park or Playground,PSA 1,"Figone, Joe",joseph.figone@sfgov.org,(415) 713-4997,94109.0,0.8,3.0,130.0,BRdway,"San Francisco, CA","(37.79577299, -122.42066143)",POINT (-122.42066143 37.79577299),29239810.9534,30323.9485551,SAN FRANCISCO,CA,94109
HYDE/VALLEJO MINI PARK,Mini Park,PSA 1,"Figone, Joe",joseph.figone@sfgov.org,(415) 713-4997,94109.0,0.1,3.0,146.0,Hyde,"San Francisco, CA","(37.79763564, -122.41910564)",POINT (-122.41910564 37.79763564),29239810.9534,30323.9485551,SAN FRANCISCO,CA,94109
JOSEPH CONRAD MINI PARK,Mini Park,PSA 1,"Cleveland, Maggie",maggie.cleveland@sfgov.org,(415) 254-8014,94109.0,0.09,3.0,154.0,601 Beach St,"San Francisco, CA","(37.80667244, -122.41906274)",POINT (-122.41906274 37.80667244),29239810.9534,30323.9485551,SAN FRANCISCO,CA,94109
LAFAYETTE PARK,Neighborhood Park or Playground,PSA 1,"Figone, Joe",joseph.figone@sfgov.org,(415) 713-4997,94109.0,11.49,2.0,128.0,Gough,"San Francisco, CA","(37.79154983, -122.42767158)",POINT (-122.42767158 37.79154983),29239810.9534,30323.9485551,SAN FRANCISCO,CA,94109
RUSSIAN HILL OPEN SPACE,Neighborhood Park or Playground,PSA 1,"Cleveland, Maggie",maggie.cleveland@sfgov.org,(415) 254-8014,94109.0,0.96,2.0,153.0,Hyde,"San Francisco, CA","(37.80341611, -122.42075699)",POINT (-122.42075699 37.80341611),29239810.9534,30323.9485551,SAN FRANCISCO,CA,94109
SGT. JOHN MACAULAY PARK,Mini Park,PSA 2,"Hill, Eric",eric.hill@sfgov.org,(415) 254-8030,94109.0,0.21,6.0,123.0,Larkin,"San Francisco, CA","(37.78540001, -122.41819743)",POINT (-122.41819743 37.78540001),29239810.9534,30323.9485551,SAN FRANCISCO,CA,94109
SOUTH END ROWING/DOLPHIN CLUB,Concession,PSA 1,"Figone, Joe",joseph.figone@sfgov.org,(415) 713-4997,94109.0,1.11,3.0,190.0,500 Jefferson St,"San Francisco, CA","(37.80796044, -122.42126376)",POINT (-122.42126376 37.80796044),29239810.9534,30323.9485551,SAN FRANCISCO,CA,94109
TENDERLOIN CHILDREN'S REC CENTER,Neighborhood Park or Playground,PSA 2,"Hill, Eric",eric.hill@sfgov.org,(415) 254-8030,94109.0,0.61,6.0,168.0,570 Ellis St,"San Francisco, CA","(37.78482103, -122.41540228)",POINT (-122.41540228 37.78482103),29239810.9534,30323.9485551,SAN FRANCISCO,CA,94109
WASHINGTON/HYDE MINI PARK,Mini Park,PSA 1,"Figone, Joe",joseph.figone@sfgov.org,(415) 713-4997,94109.0,0.15,3.0,144.0,Washington,"San Francisco, CA","(37.79400955, -122.41740007)",POINT (-122.41740007 37.79400955),29239810.9534,30323.9485551,SAN FRANCISCO,CA,94109
ALLYNE PARK,Neighborhood Park or Playground,PSA 1,"Figone, Joe",joseph.figone@sfgov.org,(415) 713-4997,94123.0,0.75,2.0,131.0,2609 Gough St,"San Francisco, CA","(37.79746066, -122.42759992)",POINT (-122.42759992 37.79746066),31602774.7513,38751.4051836,SAN FRANCISCO,CA,94123
COW HOLLOW PLAYGROUND,Neighborhood Park or Playground,PSA 1,"Figone, Joe",joseph.figone@sfgov.org,(415) 713-4997,94123.0,0.15,2.0,110.0,1 Miley St,"San Francisco, CA","(37.79733829, -122.44485143)",POINT (-122.44485143 37.79733829),31602774.7513,38751.4051836,SAN FRANCISCO,CA,94123
MOSCONE RECREATION CENTER,Neighborhood Park or Playground,PSA 1,"Figone, Joe",joseph.figone@sfgov.org,(415) 713-4997,94123.0,12.07,2.0,132.0,1800 Chestnut St,"San Francisco, CA","(37.8021249, -122.43313532)",POINT (-122.43313532 37.8021249),31602774.7513,38751.4051836,SAN FRANCISCO,CA,94123
PALACE OF FINE ARTS,Civic Plaza or Square,PSA 1,"Figone, Joe",joseph.figone@sfgov.org,(415) 713-4997,94123.0,19.37,2.0,111.0,3601 Lyon St &amp; Marina Blvd,"San Francisco, CA","(37.80299898, -122.44851272)",POINT (-122.44851272 37.80299898),31602774.7513,38751.4051836,SAN FRANCISCO,CA,94123
ALTA PLAZA,Neighborhood Park or Playground,PSA 1,"Figone, Joe",joseph.figone@sfgov.org,(415) 713-4997,94115.0,11.91,2.0,129.0,Jackson,"San Francisco, CA","(37.79117333, -122.43766978)",POINT (-122.43766978 37.79117333),30561656.884,24300.4390242,SAN FRANCISCO,CA,94115
BEIDEMAN/O'FARRELL MINI PARK,Mini Park,PSA 2,"O'Connor, Tom",tom.o'connor@sfgov.org,(415) 218-0259,94115.0,0.06,5.0,106.0,O'Farrell,"San Francisco, CA","(37.78238894, -122.43861654)",POINT (-122.43861654 37.78238894),30561656.884,24300.4390242,SAN FRANCISCO,CA,94115
BUCHANAN STREET MALL,Neighborhood Park or Playground,PSA 2,"O'Connor, Tom",tom.o'connor@sfgov.org,(415) 218-0259,94102.0,1.81,5.0,121.0,Buchanan,"San Francisco, CA","(37.77949531, -122.42856481)",POINT (-122.42856481 37.77949531),30561656.884,24300.4390242,SAN FRANCISCO,CA,94115
BUSH/BRODERICK MINI PARK,Mini Park,PSA 2,"O'Connor, Tom",tom.o'connor@sfgov.org,(415) 218-0259,94115.0,0.18,5.0,108.0,Baker,"San Francisco, CA","(37.78557814, -122.44253511)",POINT (-122.44253511 37.78557814),30561656.884,24300.4390242,SAN FRANCISCO,CA,94115
COTTAGE ROW MINI PARK,Mini Park,PSA 2,"O'Connor, Tom",tom.o'connor@sfgov.org,(415) 218-0259,94115.0,0.16,5.0,127.0,Sutter,"San Francisco, CA","(37.78657099, -122.4323102)",POINT (-122.4323102 37.78657099),30561656.884,24300.4390242,SAN FRANCISCO,CA,94115
FILLMORE/TURK MINI PARK,Mini Park,PSA 2,"O'Connor, Tom",tom.o'connor@sfgov.org,(415) 218-0259,94115.0,0.23,5.0,182.0,Fillmore,"San Francisco, CA","(37.78018588, -122.43178038)",POINT (-122.43178038 37.78018588),30561656.884,24300.4390242,SAN FRANCISCO,CA,94115
GOLDEN GATE/STEINER MINI PARK,Mini Park,PSA 2,"O'Connor, Tom",tom.o'connor@sfgov.org,(415) 218-0259,94115.0,0.08,5.0,120.0,Golden Gate,"San Francisco, CA","(37.77958265, -122.43345152)",POINT (-122.43345152 37.77958265),30561656.884,24300.4390242,SAN FRANCISCO,CA,94115
HAMILTON REC CENTER,Neighborhood Park or Playground,PSA 2,"O'Connor, Tom",tom.o'connor@sfgov.org,(415) 218-0259,94115.0,3.22,5.0,125.0,1900 Geary Blvd,"San Francisco, CA","(37.78441485, -122.43603929)",POINT (-122.43603929 37.78441485),30561656.884,24300.4390242,SAN FRANCISCO,CA,94115
JAPANTOWN PEACE PLAZA,Civic Plaza or Square,PSA 2,"O'Connor, Tom",tom.o'connor@sfgov.org,(415) 218-0259,94115.0,0.71,5.0,126.0,Post,"San Francisco, CA","(37.78520911, -122.42975098)",POINT (-122.42975098 37.78520911),30561656.884,24300.4390242,SAN FRANCISCO,CA,94115
RAYMOND KIMBELL PLAYGROUND,Neighborhood Park or Playground,PSA 2,"O'Connor, Tom",tom.o'connor@sfgov.org,(415) 218-0259,94115.0,0.0,5.0,124.0,Geary Blvd,"San Francisco, CA","(37.78294403, -122.43512653)",POINT (-122.43512653 37.78294403),30561656.884,24300.4390242,SAN FRANCISCO,CA,94115
APTOS PLAYGROUND,Neighborhood Park or Playground,PSA 4,"Sheehy, Chuck",charles.sheehy@sfgov.org,(415) 218-2226,94127.0,4.81,7.0,65.0,Aptos,"San Francisco, CA","(37.7285246, -122.46654085)",POINT (-122.46654085 37.7285246),46522319.0828,37097.2567363,SAN FRANCISCO,CA,94127
EDGEHILL MOUNTAIN,Neighborhood Park or Playground,PSA 4,"Sheehy, Chuck",charles.sheehy@sfgov.org,(415) 218-2226,94127.0,2.33,7.0,71.0,Edgehill,"San Francisco, CA","(37.74203025, -122.45976472)",POINT (-122.45976472 37.74203025),46522319.0828,37097.2567363,SAN FRANCISCO,CA,94127
MIRALOMA PLAYGROUND,Neighborhood Park or Playground,PSA 5,"Lockwood, Darlene",darlene.lockwood@sfgov.org,(415) 717-2872,94127.0,2.2,7.0,70.0,Omar,"San Francisco, CA","(37.73864614, -122.44931265)",POINT (-122.44931265 37.73864614),46522319.0828,37097.2567363,SAN FRANCISCO,CA,94127
SUNNYSIDE PLAYGROUND,Neighborhood Park or Playground,PSA 5,"Lockwood, Darlene",darlene.lockwood@sfgov.org,(415) 717-2872,94127.0,2.37,7.0,67.0,Teresita Ave,"San Francisco, CA","(37.73366412, -122.4474787)",POINT (-122.4474787 37.73366412),46522319.0828,37097.2567363,SAN FRANCISCO,CA,94127
WEST PORTAL PLAYGROUND,Neighborhood Park or Playground,PSA 4,"Sheets, Robert",robert.sheets@sfgov.org,(415) 235-4576,94127.0,1.91,7.0,68.0,Ulloa,"San Francisco, CA","(37.74160392, -122.46524393)",POINT (-122.46524393 37.74160392),46522319.0828,37097.2567363,SAN FRANCISCO,CA,94127
ARGONNE PLAYGROUND,Neighborhood Park or Playground,PSA 1,"Elder, Steve",steven.elder@sfgov.org,(415) 601-6501,94121.0,0.82,1.0,97.0,18th Ave,"San Francisco, CA","(37.779415, -122.47769976)",POINT (-122.47769976 37.779415),60790379.5089,34650.0403968,SAN FRANCISCO,CA,94121
BALBOA NATURAL AREA,Neighborhood Park or Playground,PSA 1,"Wayne, Lisa",lisa.wayne@sfgov.org,(415) 666-7092,94121.0,1.84,1.0,174.0,Balboa,"San Francisco, CA","(37.77591285, -122.51103949)",POINT (-122.51103949 37.77591285),60790379.5089,34650.0403968,SAN FRANCISCO,CA,94121
CABRILLO PLAYGROUND,Neighborhood Park or Playground,PSA 1,"Elder, Steve",steven.elder@sfgov.org,(415) 601-6501,94121.0,0.89,1.0,95.0,858 38th Ave,"San Francisco, CA","(37.77286672, -122.49870214)",POINT (-122.49870214 37.77286672),60790379.5089,34650.0403968,SAN FRANCISCO,CA,94121
DUPONT COURTS,Neighborhood Park or Playground,PSA 1,"Elder, Steve",steven.elder@sfgov.org,(415) 601-6501,94121.0,0.82,1.0,98.0,336 31st Ave,"San Francisco, CA","(37.78268787, -122.4908331)",POINT (-122.4908331 37.78268787),60790379.5089,34650.0403968,SAN FRANCISCO,CA,94121
FULTON PLAYGROUND,Neighborhood Park or Playground,PSA 1,"Elder, Steve",steven.elder@sfgov.org,(415) 601-6501,94121.0,0.82,1.0,96.0,855 27th Ave,"San Francisco, CA","(37.7733822, -122.48693405)",POINT (-122.48693405 37.7733822),60790379.5089,34650.0403968,SAN FRANCISCO,CA,94121
LINCOLN PARK,Regional Park,PSA 1,"Elder, Steve",steven.elder@sfgov.org,(415) 601-6501,94121.0,112.03,1.0,103.0,34th Ave,"San Francisco, CA","(37.78423843, -122.49838278)",POINT (-122.49838278 37.78423843),60790379.5089,34650.0403968,SAN FRANCISCO,CA,94121
RICHMOND PLAYGROUND,Neighborhood Park or Playground,PSA 1,"Elder, Steve",steven.elder@sfgov.org,(415) 601-6501,94121.0,0.82,1.0,100.0,18th Ave,"San Francisco, CA","(37.78513017, -122.47811169)",POINT (-122.47811169 37.78513017),60790379.5089,34650.0403968,SAN FRANCISCO,CA,94121
RICHMOND RECREATION CENTER,Neighborhood Park or Playground,PSA 1,"Elder, Steve",steven.elder@sfgov.org,(415) 601-6501,94121.0,0.82,1.0,172.0,251 18th Ave,"San Francisco, CA","(37.78326998, -122.47797676)",POINT (-122.47797676 37.78326998),60790379.5089,34650.0403968,SAN FRANCISCO,CA,94121
ROCHAMBEAU PLAYGROUND,Neighborhood Park or Playground,PSA 1,"Elder, Steve",steven.elder@sfgov.org,(415) 601-6501,94121.0,0.83,1.0,99.0,238 25th Ave,"San Francisco, CA","(37.78483852, -122.48454408)",POINT (-122.48454408 37.78483852),60790379.5089,34650.0403968,SAN FRANCISCO,CA,94121
BROADWAY TUNNEL EAST MINI PARK,Mini Park,PSA 1,"Cleveland, Maggie",maggie.cleveland@sfgov.org,(415) 254-8014,94133.0,0.03,3.0,204.0,BRdway,"San Francisco, CA","(37.79699682, -122.412901)",POINT (-122.412901 37.79699682),21552448.565,43114.3623601,SAN FRANCISCO,CA,94133
CHESTNUT/KEARNY OPEN SPACE,Mini Park,PSA 1,"Cleveland, Maggie",maggie.cleveland@sfgov.org,(415) 254-8014,94133.0,0.13,3.0,152.0,Chestnut,"San Francisco, CA","(37.80454125, -122.4070907)",POINT (-122.4070907 37.80454125),21552448.565,43114.3623601,SAN FRANCISCO,CA,94133
FAY PARK,Neighborhood Park or Playground,PSA 1,"Cleveland, Maggie",maggie.cleveland@sfgov.org,(415) 254-8014,94133.0,0.25,3.0,184.0,2366 Leavenworth St,"San Francisco, CA","(37.80289031, -122.4178443)",POINT (-122.4178443 37.80289031),21552448.565,43114.3623601,SAN FRANCISCO,CA,94133
INA COOLBRITH MINI PARK,Mini Park,PSA 1,"Cleveland, Maggie",maggie.cleveland@sfgov.org,(415) 254-8014,94133.0,0.8,3.0,145.0,Vallejo,"San Francisco, CA","(37.79816473, -122.41338371)",POINT (-122.41338371 37.79816473),21552448.565,43114.3623601,SAN FRANCISCO,CA,94133
JOE DIMAGGIO PLAYGROUND,Neighborhood Park or Playground,PSA 1,"Cleveland, Maggie",maggie.cleveland@sfgov.org,(415) 254-8014,94133.0,2.52,3.0,150.0,651 Lombard St,"San Francisco, CA","(37.80248342, -122.41206911)",POINT (-122.41206911 37.80248342),21552448.565,43114.3623601,SAN FRANCISCO,CA,94133
MICHELANGELO PLAYGROUND,Neighborhood Park or Playground,PSA 1,"Cleveland, Maggie",maggie.cleveland@sfgov.org,(415) 254-8014,94133.0,0.44,3.0,148.0,Greenwich,"San Francisco, CA","(37.80109573, -122.41689916)",POINT (-122.41689916 37.80109573),21552448.565,43114.3623601,SAN FRANCISCO,CA,94133
WASHINGTON SQUARE,Civic Plaza or Square,PSA 1,"Cleveland, Maggie",maggie.cleveland@sfgov.org,(415) 254-8014,94133.0,2.26,3.0,147.0,Filbert,"San Francisco, CA","(37.80083781, -122.41002829)",POINT (-122.41002829 37.80083781),21552448.565,43114.3623601,SAN FRANCISCO,CA,94133
WOH HEI YUEN PARK,Neighborhood Park or Playground,PSA 1,"Cleveland, Maggie",maggie.cleveland@sfgov.org,(415) 254-8014,94133.0,0.31,3.0,170.0,922 Jackson St,"San Francisco, CA","(37.79584858, -122.41033649)",POINT (-122.41033649 37.79584858),21552448.565,43114.3623601,SAN FRANCISCO,CA,94133
BROOKS PARK,Neighborhood Park or Playground,PSA 4,"Sheehy, Chuck",charles.sheehy@sfgov.org,(415) 218-2226,94132.0,3.77,11.0,18.0,373 Ramsell St,"San Francisco, CA","(37.71727397, -122.46676875)",POINT (-122.46676875 37.71727397),112727175.099,52755.1532284,SAN FRANCISCO,CA,94132
BROTHERHOOD/CHESTER MINI PARK,Mini Park,PSA 4,"Sheehy, Chuck",charles.sheehy@sfgov.org,(415) 218-2226,94132.0,0.59,7.0,160.0,501 Brotherhood Wy,"San Francisco, CA","(37.71238249, -122.46990318)",POINT (-122.46990318 37.71238249),112727175.099,52755.1532284,SAN FRANCISCO,CA,94132
HEAD/BROTHERHOOD MINI PARK,Mini Park,PSA 4,"Sheehy, Chuck",charles.sheehy@sfgov.org,(415) 218-2226,94132.0,0.55,11.0,196.0,Head St,"San Francisco, CA","(37.71262222, -122.46422924)",POINT (-122.46422924 37.71262222),112727175.099,52755.1532284,SAN FRANCISCO,CA,94132
JUNIPERO SERRA PLAYGROUND,Neighborhood Park or Playground,PSA 4,"Sheehy, Chuck",charles.sheehy@sfgov.org,(415) 218-2226,94132.0,1.53,7.0,13.0,300 Stonecrest Dr,"San Francisco, CA","(37.72482337, -122.47385187)",POINT (-122.47385187 37.72482337),112727175.099,52755.1532284,SAN FRANCISCO,CA,94132
MERCED HEIGHTS PLAYGROUND,Neighborhood Park or Playground,PSA 4,"Sheehy, Chuck",charles.sheehy@sfgov.org,(415) 218-2226,94132.0,1.03,11.0,17.0,Byxbee,"San Francisco, CA","(37.71750931, -122.47028126)",POINT (-122.47028126 37.71750931),112727175.099,52755.1532284,SAN FRANCISCO,CA,94132
PINE LAKE PARK,Regional Park,PSA 4,"Sheets, Robert",robert.sheets@sfgov.org,(415) 235-4576,94132.0,30.29,4.0,82.0,Sloat Blvd,"San Francisco, CA","(37.7363086, -122.48592744)",POINT (-122.48592744 37.7363086),112727175.099,52755.1532284,SAN FRANCISCO,CA,94132
RANDOLPH/BRIGHT MINI PARK,Mini Park,PSA 4,"Sheehy, Chuck",charles.sheehy@sfgov.org,(415) 218-2226,94132.0,0.09,11.0,16.0,Randolph,"San Francisco, CA","(37.71451213, -122.46369333)",POINT (-122.46369333 37.71451213),112727175.099,52755.1532284,SAN FRANCISCO,CA,94132
ROLPH NICOL PLAYGROUND,Neighborhood Park or Playground,PSA 4,"Sheets, Robert",robert.sheets@sfgov.org,(415) 235-4576,94132.0,3.04,7.0,9.0,Eucalyptus Dr,"San Francisco, CA","(37.73060291, -122.48041933)",POINT (-122.48041933 37.73060291),112727175.099,52755.1532284,SAN FRANCISCO,CA,94132
SAN FRANCISCO ZOO,Zoological Garden,PSA 4,"Scott, Ronnie",ronnie.scott@sfgov.org,(415) 504-7923,94132.0,131.52,7.0,12.0,1 Zoo Rd,"San Francisco, CA","(37.73158916, -122.50380857)",POINT (-122.50380857 37.73158916),112727175.099,52755.1532284,SAN FRANCISCO,CA,94132
SIGMUND STERN RECREATION GROVE,Regional Park,PSA 4,"Sheets, Robert",robert.sheets@sfgov.org,(415) 235-4576,94132.0,33.78,4.0,83.0,19th Ave,"San Francisco, CA","(37.73608224, -122.47829786)",POINT (-122.47829786 37.73608224),112727175.099,52755.1532284,SAN FRANCISCO,CA,94132
CARL LARSEN PARK,Neighborhood Park or Playground,PSA 4,"Sheets, Robert",robert.sheets@sfgov.org,(415) 235-4576,94116.0,6.58,4.0,86.0,19th Ave,"San Francisco, CA","(37.73929782, -122.47596603)",POINT (-122.47596603 37.73929782),73713578.4373,42635.9553171,SAN FRANCISCO,CA,94116
GOLDEN GATE HEIGHTS PARK,Neighborhood Park or Playground,PSA 4,"Sheehy, Chuck",charles.sheehy@sfgov.org,(415) 218-2226,94116.0,6.95,7.0,89.0,12th Ave (off Pacheco,"San Francisco, CA","(37.74998538, -122.46940674)",POINT (-122.46940674 37.74998538),73713578.4373,42635.9553171,SAN FRANCISCO,CA,94116
HAWK HILL,Neighborhood Park or Playground,PSA 4,"Sheehy, Chuck",charles.sheehy@sfgov.org,(415) 218-2226,94116.0,4.85,7.0,186.0,14th Ave Rivera,"San Francisco, CA","(37.74657651, -122.46872941)",POINT (-122.46872941 37.74657651),73713578.4373,42635.9553171,SAN FRANCISCO,CA,94116
J. P. MURPHY PLAYGROUND,Neighborhood Park or Playground,PSA 4,"Sheehy, Chuck",charles.sheehy@sfgov.org,(415) 218-2226,94116.0,1.23,7.0,90.0,1960 9th Ave,"San Francisco, CA","(37.75180107, -122.46500011)",POINT (-122.46500011 37.75180107),73713578.4373,42635.9553171,SAN FRANCISCO,CA,94116
MCCOPPIN SQUARE,Neighborhood Park or Playground,PSA 4,"Sheets, Robert",robert.sheets@sfgov.org,(415) 235-4576,94116.0,7.24,4.0,88.0,24th,"San Francisco, CA","(37.74382723, -122.48007959)",POINT (-122.48007959 37.74382723),73713578.4373,42635.9553171,SAN FRANCISCO,CA,94116
PARKSIDE SQUARE,Neighborhood Park or Playground,PSA 4,"Sheets, Robert",robert.sheets@sfgov.org,(415) 235-4576,94132.0,8.31,4.0,84.0,28th Ave,"San Francisco, CA","(37.73794781, -122.48390596)",POINT (-122.48390596 37.73794781),73713578.4373,42635.9553171,SAN FRANCISCO,CA,94116
ROCK OUTCROPPING,Neighborhood Park or Playground,PSA 4,"Sheets, Robert",robert.sheets@sfgov.org,(415) 235-4576,94116.0,1.4,7.0,175.0,Ortega,"San Francisco, CA","(37.75384487, -122.47086479)",POINT (-122.47086479 37.75384487),73713578.4373,42635.9553171,SAN FRANCISCO,CA,94116
SOUTH SUNSET PLAYGROUND,Neighborhood Park or Playground,PSA 4,"Sheets, Robert",robert.sheets@sfgov.org,(415) 235-4576,94116.0,3.72,4.0,85.0,40th Ave,"San Francisco, CA","(37.73738679, -122.49845174)",POINT (-122.49845174 37.73738679),73713578.4373,42635.9553171,SAN FRANCISCO,CA,94116
WEST SUNSET PLAYGROUND,Neighborhood Park or Playground,PSA 4,"Sheets, Robert",robert.sheets@sfgov.org,(415) 235-4576,94116.0,17.16,4.0,91.0,3223 Ortega St &amp; 39th Ave,"San Francisco, CA","(37.74899627, -122.49800859)",POINT (-122.49800859 37.74899627),73713578.4373,42635.9553171,SAN FRANCISCO,CA,94116
CHINESE RECREATION CENTER,Neighborhood Park or Playground,PSA 1,"Cleveland, Maggie",maggie.cleveland@sfgov.org,(415) 254-8014,94108.0,0.65,3.0,140.0,1101 Washington St,"San Francisco, CA","(37.79420965, -122.41178577)",POINT (-122.41178577 37.79420965),7705084.55127,14174.1118291,SAN FRANCISCO,CA,94108
COLLIS P. HUNTINGTON PARK,Civic Plaza or Square,PSA 1,"Cleveland, Maggie",maggie.cleveland@sfgov.org,(415) 254-8014,94108.0,1.07,3.0,137.0,California,"San Francisco, CA","(37.79216576, -122.41215294)",POINT (-122.41215294 37.79216576),7705084.55127,14174.1118291,SAN FRANCISCO,CA,94108
PORTSMOUTH SQUARE,Neighborhood Park or Playground,PSA 1,"Cleveland, Maggie",maggie.cleveland@sfgov.org,(415) 254-8014,94108.0,1.29,3.0,141.0,Washington,"San Francisco, CA","(37.79483492, -122.40535067)",POINT (-122.40535067 37.79483492),7705084.55127,14174.1118291,SAN FRANCISCO,CA,94108
ST MARY'S SQUARE,Civic Plaza or Square,PSA 1,"Cleveland, Maggie",maggie.cleveland@sfgov.org,(415) 254-8014,94108.0,1.11,3.0,136.0,California St,"San Francisco, CA","(37.79205617, -122.40511712)",POINT (-122.40511712 37.79205617),7705084.55127,14174.1118291,SAN FRANCISCO,CA,94108
UNION SQUARE,Civic Plaza or Square,PSA 2,"Hill, Eric",eric.hill@sfgov.org,(415) 254-8030,94108.0,2.6,3.0,135.0,Post,"San Francisco, CA","(37.78793122, -122.40750049)",POINT (-122.40750049 37.78793122),7705084.55127,14174.1118291,SAN FRANCISCO,CA,94108
CORONA HEIGHTS,Neighborhood Park or Playground,PSA 5,"O'Brien, Teresa",teresa.o'brien@sfgov.org,(415) 819-2699,94114.0,13.38,8.0,80.0,Roosevelt,"San Francisco, CA","(37.76497671, -122.43879691)",POINT (-122.43879691 37.76497671),40823946.739,38323.361765,SAN FRANCISCO,CA,94114
Corwin Community Garden,Community Garden,PSA 5,"O'Brien, Teresa",teresa.o'brien@sfgov.org,(415) 819-2699,94114.0,0.09,8.0,164221.0,410 Douglass St,"San Francisco, CA","(37.75723015, -122.43902313)",POINT (-122.43902313 37.75723015),40823946.739,38323.361765,SAN FRANCISCO,CA,94114
EUREKA VALLEY REC CENTER,Neighborhood Park or Playground,PSA 5,"O'Brien, Teresa",teresa.o'brien@sfgov.org,(415) 819-2699,94114.0,1.93,8.0,75.0,100 Collingwood St,"San Francisco, CA","(37.75978957, -122.43648069)",POINT (-122.43648069 37.75978957),40823946.739,38323.361765,SAN FRANCISCO,CA,94114
KITE HILL,Neighborhood Park or Playground,PSA 5,"O'Brien, Teresa",teresa.o'brien@sfgov.org,(415) 819-2699,94114.0,2.87,8.0,74.0,Yukon,"San Francisco, CA","(37.75824114, -122.44166171)",POINT (-122.44166171 37.75824114),40823946.739,38323.361765,SAN FRANCISCO,CA,94114
MISSION DOLORES PARK,Neighborhood Park or Playground,PSA 6,"Field, Adrian",adrian.field@sfgov.org,(415) 717-2872,94114.0,15.94,8.0,63.0,19th,"San Francisco, CA","(37.75975506, -122.42709405)",POINT (-122.42709405 37.75975506),40823946.739,38323.361765,SAN FRANCISCO,CA,94114
NOE VALLEY COURTS,Neighborhood Park or Playground,PSA 5,"O'Brien, Teresa",teresa.o'brien@sfgov.org,(415) 819-2699,94114.0,0.93,8.0,72.0,24th,"San Francisco, CA","(37.75140324, -122.43892096)",POINT (-122.43892096 37.75140324),40823946.739,38323.361765,SAN FRANCISCO,CA,94114
NOE/BEAVER COMMUNITY GARDEN,Community Garden,PSA 6,"Field, Adrian",adrian.field@sfgov.org,(415) 717-2872,94114.0,0.11,8.0,64.0,Noe,"San Francisco, CA","(37.76491711, -122.4334455)",POINT (-122.4334455 37.76491711),40823946.739,38323.361765,SAN FRANCISCO,CA,94114
PEIXOTTO PLAYGROUND,Neighborhood Park or Playground,PSA 5,"O'Brien, Teresa",teresa.o'brien@sfgov.org,(415) 819-2699,94114.0,0.79,8.0,195.0,15th St,"San Francisco, CA","(37.76578838, -122.43790519)",POINT (-122.43790519 37.76578838),40823946.739,38323.361765,SAN FRANCISCO,CA,94114
PORTOLA OPEN SPACE,Mini Park,PSA 5,"Lockwood, Darlene",darlene.lockwood@sfgov.org,(415) 717-2872,94131.0,0.81,8.0,37264.0,201 Portola,"San Francisco, CA","(37.74707797, -122.44406156)",POINT (-122.44406156 37.74707797),40823946.739,38323.361765,SAN FRANCISCO,CA,94114
ROOSEVELT/HENRY STEPS,Mini Park,PSA 5,"O'Brien, Teresa",teresa.o'brien@sfgov.org,(415) 819-2699,94114.0,0.34,8.0,107857.0,299 Henry St,"San Francisco, CA","(37.76655956, -122.43732268)",POINT (-122.43732268 37.76655956),40823946.739,38323.361765,SAN FRANCISCO,CA,94114
SATURN STREET STEPS,Mini Park,PSA 5,"O'Brien, Teresa",teresa.o'brien@sfgov.org,(415) 819-2699,94114.0,0.1,8.0,79.0,Saturn,"San Francisco, CA","(37.7626853, -122.44055619)",POINT (-122.44055619 37.7626853),40823946.739,38323.361765,SAN FRANCISCO,CA,94114
SEWARD MINI PARK,Mini Park,PSA 5,"O'Brien, Teresa",teresa.o'brien@sfgov.org,(415) 819-2699,94114.0,0.37,8.0,73.0,Seward,"San Francisco, CA","(37.75761058, -122.44006058)",POINT (-122.44006058 37.75761058),40823946.739,38323.361765,SAN FRANCISCO,CA,94114
STATES STREET PLAYGROUND,Neighborhood Park or Playground,PSA 5,"O'Brien, Teresa",teresa.o'brien@sfgov.org,(415) 819-2699,94114.0,2.76,8.0,200.0,86 States St,"San Francisco, CA","(37.76380044, -122.43785312)",POINT (-122.43785312 37.76380044),40823946.739,38323.361765,SAN FRANCISCO,CA,94114
CROCKER AMAZON PLAYGROUND,Neighborhood Park or Playground,PSA 3,"Taylor, Zack",zack.taylor@sfgov.org,(415) 601-7277,94112.0,56.46,11.0,164.0,Moscow,"San Francisco, CA","(37.7140459, -122.42923866)",POINT (-122.42923866 37.7140459),67516008.0857,44866.5215478,SAN FRANCISCO,CA,94134
HERZ PLAYGROUND,Neighborhood Park or Playground,PSA 3,"Taylor, Zack",zack.taylor@sfgov.org,(415) 601-7277,94134.0,6.68,10.0,137671.0,Hahn,"San Francisco, CA","(37.71348444, -122.41659732)",POINT (-122.41659732 37.71348444),67516008.0857,44866.5215478,SAN FRANCISCO,CA,94134
JOHN MCLAREN PARK,Regional Park,PSA 3,"Taylor, Zack",zack.taylor@sfgov.org,(415) 601-7277,94112.0,312.54,10.0,28.0,Mansell,"San Francisco, CA","(37.7180842, -122.41907209)",POINT (-122.41907209 37.7180842),67516008.0857,44866.5215478,SAN FRANCISCO,CA,94134
KELLOCH VELASCO MINI PARK,Mini Park,PSA 3,"Watkins, Robert",robert.watkins@sfgov.org,(415) 819-6138,94134.0,1.74,10.0,26.0,Kelloch,"San Francisco, CA","(37.70854271, -122.41314877)",POINT (-122.41314877 37.70854271),67516008.0857,44866.5215478,SAN FRANCISCO,CA,94134
LITTLE HOLLYWOOD PARK,Neighborhood Park or Playground,PSA 3,"Watkins, Robert",robert.watkins@sfgov.org,(415) 819-6138,94134.0,1.31,10.0,42.0,Lathrop,"San Francisco, CA","(37.70996909, -122.39820878)",POINT (-122.39820878 37.70996909),67516008.0857,44866.5215478,SAN FRANCISCO,CA,94134
LOUIS SUTTER PLAYGROUND,Neighborhood Park or Playground,PSA 3,"Taylor, Zack",zack.taylor@sfgov.org,(415) 601-7277,94134.0,13.92,10.0,137665.0,Wayland,"San Francisco, CA","(37.72245982, -122.41392441)",POINT (-122.41392441 37.72245982),67516008.0857,44866.5215478,SAN FRANCISCO,CA,94134
PALEGA RECREATION CENTER,Neighborhood Park or Playground,PSA 3,"Watkins, Robert",robert.watkins@sfgov.org,(415) 819-6138,94134.0,4.97,9.0,30.0,500 Felton St,"San Francisco, CA","(37.72934205, -122.40978)",POINT (-122.40978 37.72934205),67516008.0857,44866.5215478,SAN FRANCISCO,CA,94134
VISITACION VALLEY GREENWAY,Neighborhood Park or Playground,PSA 3,"Taylor, Zack",zack.taylor@sfgov.org,(415) 601-7277,94134.0,2.13,10.0,177.0,Lel,"San Francisco, CA","(37.71476638, -122.40613194)",POINT (-122.40613194 37.71476638),67516008.0857,44866.5215478,SAN FRANCISCO,CA,94134
VISITACION VALLEY PLAYGROUND,Neighborhood Park or Playground,PSA 3,"Taylor, Zack",zack.taylor@sfgov.org,(415) 601-7277,94134.0,2.05,10.0,27.0,251 Lel&amp; St,"San Francisco, CA","(37.71240126, -122.40908547)",POINT (-122.40908547 37.71240126),67516008.0857,44866.5215478,SAN FRANCISCO,CA,94134
FATHER ALFRED E. BOEDDEKER PARK,Neighborhood Park or Playground,PSA 2,"Hill, Eric",eric.hill@sfgov.org,(415) 254-8030,94102.0,0.97,6.0,134.0,295 Eddy St,"San Francisco, CA","(37.78439513, -122.4120591)",POINT (-122.4120591 37.78439513),18740654.0256,23624.3085968,SAN FRANCISCO,CA,94102
HAYES VALLEY PLAYGROUND,Neighborhood Park or Playground,PSA 2,"O'Connor, Tom",tom.o'connor@sfgov.org,(415) 218-0259,94102.0,0.61,5.0,116.0,Hayes,"San Francisco, CA","(37.77606034, -122.42736714)",POINT (-122.42736714 37.77606034),18740654.0256,23624.3085968,SAN FRANCISCO,CA,94102
JEFFERSON SQUARE,Neighborhood Park or Playground,PSA 2,"O'Connor, Tom",tom.o'connor@sfgov.org,(415) 218-0259,94102.0,5.64,6.0,122.0,Eddy,"San Francisco, CA","(37.78180034, -122.42565792)",POINT (-122.42565792 37.78180034),18740654.0256,23624.3085968,SAN FRANCISCO,CA,94102
JOSEPH L. ALIOTO PERFORMING ARTS PIAZZA,Civic Plaza or Square,PSA 2,"Hill, Eric",eric.hill@sfgov.org,(415) 254-8030,94102.0,5.38,6.0,118.0,Grove,"San Francisco, CA","(37.77948045, -122.4175995)",POINT (-122.4175995 37.77948045),18740654.0256,23624.3085968,SAN FRANCISCO,CA,94102
KOSHLAND PARK,Neighborhood Park or Playground,PSA 2,"O'Connor, Tom",tom.o'connor@sfgov.org,(415) 218-0259,94102.0,0.82,5.0,115.0,Page,"San Francisco, CA","(37.77324835, -122.42672942)",POINT (-122.42672942 37.77324835),18740654.0256,23624.3085968,SAN FRANCISCO,CA,94102
MARGARET S HAYWARD PLAYGROUND,Neighborhood Park or Playground,PSA 2,"O'Connor, Tom",tom.o'connor@sfgov.org,(415) 218-0259,94102.0,5.03,6.0,119.0,1016 Laguna,"San Francisco, CA","(37.78084683, -122.425427)",POINT (-122.425427 37.78084683),18740654.0256,23624.3085968,SAN FRANCISCO,CA,94102
PAGE ST. COMMUNITY GARDEN,Community Garden,PSA 2,"O'Connor, Tom",tom.o'connor@sfgov.org,(415) 218-0259,94102.0,0.08,5.0,11976.0,438 Page St,"San Francisco, CA","(37.77362331, -122.42810149)",POINT (-122.42810149 37.77362331),18740654.0256,23624.3085968,SAN FRANCISCO,CA,94102
PAGE/LAGUNA MINI PARK,Mini Park,PSA 2,"O'Connor, Tom",tom.o'connor@sfgov.org,(415) 218-0259,94102.0,0.15,5.0,114.0,Page,"San Francisco, CA","(37.77346139, -122.42524781)",POINT (-122.42524781 37.77346139),18740654.0256,23624.3085968,SAN FRANCISCO,CA,94102
PATRICIAS GREEN IN HAYES VALLEY,Mini Park,PSA 2,"O'Connor, Tom",tom.o'connor@sfgov.org,(415) 218-0259,94102.0,0.45,5.0,59481.0,btw Hayes,"San Francisco, CA","(37.77622289, -122.42441307)",POINT (-122.42441307 37.77622289),18740654.0256,23624.3085968,SAN FRANCISCO,CA,94102
TURK/HYDE MINI PARK,Mini Park,PSA 2,"Hill, Eric",eric.hill@sfgov.org,(415) 254-8030,94102.0,0.11,6.0,192.0,Hyde,"San Francisco, CA","(37.78274031, -122.41596297)",POINT (-122.41596297 37.78274031),18740654.0256,23624.3085968,SAN FRANCISCO,CA,94102
GENE FRIEND REC CENTER,Neighborhood Park or Playground,PSA 2,"Hill, Eric",eric.hill@sfgov.org,(415) 254-8030,94103.0,1.02,6.0,57.0,270 6th St,"San Francisco, CA","(37.77863929, -122.40635191)",POINT (-122.40635191 37.77863929),36906106.5495,33638.9331596,SAN FRANCISCO,CA,94103
HOWARD/LANGTON MINI PARK,Community Garden,PSA 2,"Hill, Eric",eric.hill@sfgov.org,(415) 254-8030,94103.0,0.23,6.0,58.0,Howard,"San Francisco, CA","(37.77723739, -122.40981275)",POINT (-122.40981275 37.77723739),36906106.5495,33638.9331596,SAN FRANCISCO,CA,94103
VICTORIA MANALO DRAVES PARK,Neighborhood Park or Playground,PSA 2,"Hill, Eric",eric.hill@sfgov.org,(415) 254-8030,94103.0,2.52,6.0,169.0,Folsom,"San Francisco, CA","(37.77700947, -122.40595532)",POINT (-122.40595532 37.77700947),36906106.5495,33638.9331596,SAN FRANCISCO,CA,94103
GUY PLACE MINI PARK,Mini Park,PSA 2,"Hill, Eric",eric.hill@sfgov.org,(415) 254-8030,94105.0,0.0,6.0,445358.0,4 8 Guy Place,"San Francisco, CA","(37.7750329000483, -122.41916720030605)",POINT (-122.419167200306 37.7750329000483),36906106.5495,33638.9331596,SAN FRANCISCO,CA,94103
JACKSON PLAYGROUND,Neighborhood Park or Playground,PSA 2,"Hill, Eric",eric.hill@sfgov.org,(415) 254-8030,94107.0,4.41,10.0,54.0,17th,"San Francisco, CA","(37.7643148, -122.3996072)",POINT (-122.3996072 37.7643148),66294329.949,72456.4318386,SAN FRANCISCO,CA,94107
MCKINLEY SQUARE,Neighborhood Park or Playground,PSA 2,"Hill, Eric",eric.hill@sfgov.org,(415) 254-8030,94107.0,2.81,10.0,53.0,20th St,"San Francisco, CA","(37.75913976, -122.40469058)",POINT (-122.40469058 37.75913976),66294329.949,72456.4318386,SAN FRANCISCO,CA,94107
POTRERO HILL MINI PARK,Mini Park,PSA 2,"Hill, Eric",eric.hill@sfgov.org,(415) 254-8030,94107.0,0.22,10.0,10416.0,22nd,"San Francisco, CA","(37.75744642, -122.3965207)",POINT (-122.3965207 37.75744642),66294329.949,72456.4318386,SAN FRANCISCO,CA,94107
POTRERO HILL RECREATION CENTER,Neighborhood Park or Playground,PSA 2,"Hill, Eric",eric.hill@sfgov.org,(415) 254-8030,94107.0,10.07,10.0,52.0,801 Arkansas St,"San Francisco, CA","(37.75613966, -122.39688179)",POINT (-122.39688179 37.75613966),66294329.949,72456.4318386,SAN FRANCISCO,CA,94107
SOUTH PARK,Neighborhood Park or Playground,PSA 2,"Hill, Eric",eric.hill@sfgov.org,(415) 254-8030,94107.0,1.12,6.0,56.0,64 Park Ave,"San Francisco, CA","(37.78157949, -122.39395227)",POINT (-122.39395227 37.78157949),66294329.949,72456.4318386,SAN FRANCISCO,CA,94107
JULIUS KAHN PLAYGROUND,Neighborhood Park or Playground,PSA 1,"Figone, Joe",joseph.figone@sfgov.org,(415) 713-4997,94118.0,12.38,2.0,166.0,Pacific Ave,"San Francisco, CA","(37.79131306, -122.45397275)",POINT (-122.45397275 37.79131306),66147462.778,36589.1009263,SAN FRANCISCO,CA,94129
JUSTIN HERMAN/EMBARCADERO PLAZA,Civic Plaza or Square,PSA 1,"Cleveland, Maggie",maggie.cleveland@sfgov.org,(415) 254-8014,94111.0,4.33,3.0,138.0,Clay,"San Francisco, CA","(37.79487978, -122.39476577)",POINT (-122.39476577 37.79487978),9973098.48964,31453.7823665,SAN FRANCISCO,CA,94111
MARITIME PLAZA,Civic Plaza or Square,PSA 1,"Cleveland, Maggie",maggie.cleveland@sfgov.org,(415) 254-8014,94111.0,2.01,3.0,142.0,285 Washington St,"San Francisco, CA","(37.79560513, -122.39923889)",POINT (-122.39923889 37.79560513),9973098.48964,31453.7823665,SAN FRANCISCO,CA,94111
SUE BIERMAN PARK,Neighborhood Park or Playground,PSA 1,"Cleveland, Maggie",maggie.cleveland@sfgov.org,(415) 601-7277,94111.0,4.41,3.0,143.0,Clay St,"San Francisco, CA","(37.79592597, -122.3965106)",POINT (-122.3965106 37.79592597),9973098.48964,31453.7823665,SAN FRANCISCO,CA,94111
